{
"type": "FeatureCollection",
"name": "boundary",
"xy_coordinate_resolution": 1e-07,
"features": [
{ "type": "Feature", "properties": { "AREA_TOTAL": 719412405.0, "FAZENDA": "70055", "TALHAO": 1.0, "ZONA": 15100.0, "NOME_FAZ": "SÍTIO BELA VISTA II", "DESC_TALHA": "700551", "CREATED_ON": "08/01/2026", "CHAVE": "70055-1", "ÁREA TOTA": 19.33, "VARIED PLA": "RB07-5322", "CORTE": "1", "CICLO": "TARDIA", "CULTURA": "CANA", "TALHOES_BL": "1_ao_2", "STATUS_CHA": "A_COLHER" }, "geometry": { "type": "MultiPolygon", "coordinates": [ [ [ [ -49.570449, -20.4047669 ], [ -49.5704471, -20.4047667 ], [ -49.5703874, -20.4047592 ], [ -49.5703414, -20.4047536 ], [ -49.5703269, -20.4047297 ], [ -49.5703155, -20.4046626 ], [ -49.570311, -20.4045645 ], [ -49.5703073, -20.4044363 ], [ -49.570318, -20.4043167 ], [ -49.5703337, -20.4041958 ], [ -49.5703437, -20.4040747 ], [ -49.5703476, -20.4039606 ], [ -49.5703503, -20.4038482 ], [ -49.5703571, -20.403731 ], [ -49.5703608, -20.4036093 ], [ -49.5703662, -20.4034877 ], [ -49.5703772, -20.403361 ], [ -49.5703799, -20.4033215 ], [ -49.5707997, -20.4033632 ], [ -49.5712217, -20.4034048 ], [ -49.5739503, -20.4036951 ], [ -49.5746027, -20.403758 ], [ -49.5746757, -20.403765 ], [ -49.574645, -20.4037772 ], [ -49.5746252, -20.4038157 ], [ -49.5746257, -20.4038853 ], [ -49.5746317, -20.4039571 ], [ -49.574648, -20.4039959 ], [ -49.5746855, -20.4040276 ], [ -49.5746907, -20.4040317 ], [ -49.5746903, -20.4040517 ], [ -49.5746794, -20.4041846 ], [ -49.5746648, -20.4043184 ], [ -49.5746498, -20.4044562 ], [ -49.5746375, -20.4045917 ], [ -49.5746306, -20.4047287 ], [ -49.5746221, -20.4048639 ], [ -49.5746075, -20.4049974 ], [ -49.5745994, -20.4051097 ], [ -49.574586, -20.4051732 ], [ -49.5745674, -20.4051957 ], [ -49.5745232, -20.4052007 ], [ -49.5744595, -20.4051934 ], [ -49.5743742, -20.405183 ], [ -49.574252, -20.4051732 ], [ -49.5741141, -20.4051598 ], [ -49.5739772, -20.4051442 ], [ -49.5738637, -20.4051341 ], [ -49.5737853, -20.405127 ], [ -49.5736868, -20.4051166 ], [ -49.5733956, -20.4050859 ], [ -49.5732771, -20.405075 ], [ -49.5731415, -20.4050611 ], [ -49.5729984, -20.4050483 ], [ -49.5728576, -20.4050354 ], [ -49.5727458, -20.4050248 ], [ -49.5726766, -20.4050182 ], [ -49.5725837, -20.4050085 ], [ -49.5724979, -20.4049969 ], [ -49.5724102, -20.4049836 ], [ -49.5723082, -20.404977 ], [ -49.5722146, -20.4049672 ], [ -49.5721123, -20.4049593 ], [ -49.5717741, -20.4049288 ], [ -49.571681, -20.4049164 ], [ -49.5715759, -20.4049058 ], [ -49.5714595, -20.4048959 ], [ -49.5713698, -20.4048882 ], [ -49.5712829, -20.4048777 ], [ -49.5712177, -20.404869 ], [ -49.5711582, -20.4048633 ], [ -49.5710884, -20.4048542 ], [ -49.5710051, -20.4048483 ], [ -49.5709268, -20.4048398 ], [ -49.5708454, -20.4048287 ], [ -49.5707815, -20.4048096 ], [ -49.5707297, -20.4047926 ], [ -49.5707219, -20.4047919 ], [ -49.5707256, -20.404721 ], [ -49.5706655, -20.4046724 ], [ -49.5705934, -20.4046666 ], [ -49.5705489, -20.4046735 ], [ -49.5705182, -20.4046984 ], [ -49.5704913, -20.4047201 ], [ -49.570464, -20.4047403 ], [ -49.570449, -20.4047669 ] ] ] ] } },
{ "type": "Feature", "properties": { "AREA_TOTAL": 7.8798995, "FAZENDA": "70055", "TALHAO": 1.0, "ZONA": 15100.0, "NOME_FAZ": "SÍTIO BELA VISTA II", "DESC_TALHA": "700551", "CREATED_ON": "08/01/2026", "CHAVE": "70055-1", "ÁREA TOTA": 19.33, "VARIED PLA": "RB07-5322", "CORTE": "1", "CICLO": "TARDIA", "CULTURA": "CANA", "TALHOES_BL": "1_ao_2", "STATUS_CHA": "A_COLHER" }, "geometry": { "type": "MultiPolygon", "coordinates": [ [ [ [ -49.5748575, -20.4017693 ], [ -49.574853, -20.4018703 ], [ -49.574848, -20.4019923 ], [ -49.574841, -20.4021207 ], [ -49.5748285, -20.4022567 ], [ -49.5748181, -20.4023941 ], [ -49.5748087, -20.4025371 ], [ -49.5747966, -20.4026886 ], [ -49.5747845, -20.4028477 ], [ -49.5747771, -20.4029353 ], [ -49.5746971, -20.4029256 ], [ -49.5744939, -20.402904 ], [ -49.5734617, -20.4027995 ], [ -49.5725137, -20.4027049 ], [ -49.5711261, -20.4025651 ], [ -49.5704237, -20.4024924 ], [ -49.570428, -20.402451 ], [ -49.5704403, -20.4023268 ], [ -49.5704599, -20.4022113 ], [ -49.5704657, -20.4021237 ], [ -49.5704587, -20.4020368 ], [ -49.5704452, -20.4019487 ], [ -49.5704342, -20.4018428 ], [ -49.5704327, -20.401743 ], [ -49.5704346, -20.4016294 ], [ -49.5704353, -20.4014949 ], [ -49.5704288, -20.4013612 ], [ -49.570408, -20.4012306 ], [ -49.5703968, -20.4011158 ], [ -49.5704067, -20.4010279 ], [ -49.570438, -20.4009733 ], [ -49.5705017, -20.4009444 ], [ -49.5705799, -20.4009399 ], [ -49.5706786, -20.4009448 ], [ -49.5707843, -20.4009559 ], [ -49.5708953, -20.4009667 ], [ -49.5710027, -20.4009781 ], [ -49.571107, -20.4009865 ], [ -49.5712076, -20.4009962 ], [ -49.5713081, -20.4010048 ], [ -49.5713963, -20.4010132 ], [ -49.5714694, -20.4010212 ], [ -49.5715256, -20.4010278 ], [ -49.5715705, -20.4010348 ], [ -49.5716038, -20.4010565 ], [ -49.5716116, -20.401092 ], [ -49.5716287, -20.4011315 ], [ -49.5716795, -20.4011494 ], [ -49.5717379, -20.4011559 ], [ -49.5718219, -20.4011638 ], [ -49.5719276, -20.4011729 ], [ -49.5720385, -20.4011851 ], [ -49.5721546, -20.4011967 ], [ -49.5722721, -20.4012084 ], [ -49.5723789, -20.4012203 ], [ -49.5724537, -20.4012275 ], [ -49.5725002, -20.4012074 ], [ -49.5725003, -20.4011636 ], [ -49.5724993, -20.4011435 ], [ -49.5725667, -20.4011307 ], [ -49.5726179, -20.4011369 ], [ -49.5726989, -20.4011457 ], [ -49.5727919, -20.4011569 ], [ -49.5729093, -20.4011691 ], [ -49.5730381, -20.4011787 ], [ -49.5731726, -20.401191 ], [ -49.5733164, -20.4012047 ], [ -49.5734701, -20.4012188 ], [ -49.5736271, -20.4012353 ], [ -49.5737854, -20.401252 ], [ -49.5739441, -20.4012664 ], [ -49.5741047, -20.4012829 ], [ -49.5742711, -20.4013003 ], [ -49.5744402, -20.4013254 ], [ -49.5746069, -20.4013548 ], [ -49.5747406, -20.4013824 ], [ -49.5748187, -20.4014119 ], [ -49.5748701, -20.4014571 ], [ -49.5748692, -20.4014952 ], [ -49.574867, -20.4015189 ], [ -49.5748092, -20.4015545 ], [ -49.5747887, -20.4016109 ], [ -49.5747872, -20.401659 ], [ -49.5748089, -20.4017063 ], [ -49.5748575, -20.4017693 ] ] ] ] } }
]
}
