{
"type": "FeatureCollection",
"name": "boundary",
"xy_coordinate_resolution": 1e-07,
"features": [
{ "type": "Feature", "properties": { "AREA_TOTAL": 3.83565419, "FAZENDA": "70057", "TALHAO": 3.0, "ZONA": 15030.0, "NOME_FAZ": "FAZENDA MODELO", "DESC_TALHA": "700573", "CREATED_ON": "02/09/2025", "CHAVE": "70057-3", "ÁREA TOTA": 4.78, "VARIED PLA": "RB96-6928", "CORTE": "1", "CICLO": "PRECOCE", "CULTURA": "CANA", "TALHOES_BL": "1_ao_3", "STATUS_CHA": "COLHIDO" }, "geometry": { "type": "MultiPolygon", "coordinates": [ [ [ [ -49.5727147, -20.3926672 ], [ -49.5726712, -20.3925327 ], [ -49.572641, -20.3924235 ], [ -49.5726242, -20.3923301 ], [ -49.5726242, -20.3922374 ], [ -49.5726352, -20.3921552 ], [ -49.5726649, -20.3920835 ], [ -49.5727021, -20.3920208 ], [ -49.5727486, -20.3919969 ], [ -49.5727996, -20.3919981 ], [ -49.5728482, -20.392016 ], [ -49.5729043, -20.3920434 ], [ -49.5729455, -20.3920647 ], [ -49.5729564, -20.3920767 ], [ -49.5729672, -20.3920837 ], [ -49.5729636, -20.3921008 ], [ -49.5729724, -20.3921438 ], [ -49.5729909, -20.3921738 ], [ -49.5730287, -20.3921817 ], [ -49.5730565, -20.3921635 ], [ -49.5730629, -20.3921389 ], [ -49.5730628, -20.3921194 ], [ -49.573092, -20.3921049 ], [ -49.573136, -20.3921187 ], [ -49.5732034, -20.3921347 ], [ -49.5732949, -20.3921395 ], [ -49.5733917, -20.3921488 ], [ -49.5735046, -20.3921632 ], [ -49.573616, -20.3921809 ], [ -49.573723, -20.3921988 ], [ -49.573838, -20.3922223 ], [ -49.5739645, -20.3922547 ], [ -49.5740959, -20.3922903 ], [ -49.574223, -20.392306 ], [ -49.5743481, -20.3923172 ], [ -49.5744748, -20.3923344 ], [ -49.5746023, -20.3923551 ], [ -49.5747359, -20.3923808 ], [ -49.5748656, -20.3924076 ], [ -49.5749773, -20.392441 ], [ -49.5750831, -20.3924638 ], [ -49.5751935, -20.3924683 ], [ -49.5753259, -20.3924855 ], [ -49.575464, -20.3925046 ], [ -49.5756031, -20.3925262 ], [ -49.575737, -20.3925474 ], [ -49.5759233, -20.3925804 ], [ -49.5759164, -20.3926424 ], [ -49.5759162, -20.3927703 ], [ -49.5759312, -20.3929243 ], [ -49.5759332, -20.3930623 ], [ -49.5759294, -20.3931636 ], [ -49.5759109, -20.3932324 ], [ -49.5758635, -20.3932671 ], [ -49.5757697, -20.3932825 ], [ -49.5756266, -20.3932975 ], [ -49.5754559, -20.3933108 ], [ -49.5752699, -20.3933176 ], [ -49.5750669, -20.3933282 ], [ -49.5748564, -20.3933386 ], [ -49.5746446, -20.3933458 ], [ -49.5744244, -20.3933553 ], [ -49.5741973, -20.3933709 ], [ -49.5739693, -20.3933841 ], [ -49.5737464, -20.3933982 ], [ -49.5735313, -20.3934128 ], [ -49.5733058, -20.393431 ], [ -49.5731195, -20.3934364 ], [ -49.5730706, -20.3934285 ], [ -49.5729957, -20.3933963 ], [ -49.5729513, -20.393353 ], [ -49.5729148, -20.3932841 ], [ -49.5728796, -20.3931864 ], [ -49.5728454, -20.3930787 ], [ -49.5728076, -20.3929529 ], [ -49.5727629, -20.3928123 ], [ -49.5727147, -20.3926672 ] ] ] ] } },
{ "type": "Feature", "properties": { "AREA_TOTAL": 0.94711801, "FAZENDA": "70057", "TALHAO": 3.0, "ZONA": 15030.0, "NOME_FAZ": "FAZENDA MODELO", "DESC_TALHA": "700573", "CREATED_ON": "02/09/2025", "CHAVE": "70057-3", "ÁREA TOTA": 4.78, "VARIED PLA": "RB96-6928", "CORTE": "1", "CICLO": "PRECOCE", "CULTURA": "CANA", "TALHOES_BL": "1_ao_3", "STATUS_CHA": "COLHIDO" }, "geometry": { "type": "MultiPolygon", "coordinates": [ [ [ [ -49.572037, -20.3928818 ], [ -49.5720665, -20.3927765 ], [ -49.5720952, -20.3926691 ], [ -49.5721291, -20.3925583 ], [ -49.5721673, -20.3924501 ], [ -49.5722042, -20.3923805 ], [ -49.5722325, -20.3923505 ], [ -49.5722456, -20.3923419 ], [ -49.5722648, -20.3923676 ], [ -49.5722921, -20.3923918 ], [ -49.5723272, -20.3923929 ], [ -49.5723477, -20.3923779 ], [ -49.5723405, -20.3923146 ], [ -49.5723689, -20.3923155 ], [ -49.5724195, -20.3923079 ], [ -49.5724767, -20.3922955 ], [ -49.5725255, -20.3922997 ], [ -49.5725548, -20.3923436 ], [ -49.5725925, -20.3924161 ], [ -49.5726315, -20.3925166 ], [ -49.5726682, -20.3926299 ], [ -49.5727108, -20.3927572 ], [ -49.5727561, -20.3928971 ], [ -49.5728009, -20.39304 ], [ -49.5728446, -20.3931835 ], [ -49.572889, -20.3933029 ], [ -49.5729217, -20.3934303 ], [ -49.5728584, -20.3934424 ], [ -49.5726984, -20.3934631 ], [ -49.5725234, -20.3934712 ], [ -49.572354, -20.3934784 ], [ -49.5721945, -20.3934877 ], [ -49.5720483, -20.3934943 ], [ -49.5719669, -20.3934892 ], [ -49.5719275, -20.3934589 ], [ -49.5719044, -20.393431 ], [ -49.5718906, -20.3933918 ], [ -49.571903, -20.393353 ], [ -49.5719159, -20.393322 ], [ -49.5719315, -20.3932605 ], [ -49.5719532, -20.3931755 ], [ -49.5719796, -20.3930844 ], [ -49.5720077, -20.3929844 ], [ -49.572037, -20.3928818 ] ] ] ] } },
{ "type": "Feature", "properties": { "AREA_TOTAL": 22.85360736, "FAZENDA": "70057", "TALHAO": 1.0, "ZONA": 15030.0, "NOME_FAZ": "FAZENDA MODELO", "DESC_TALHA": "700571", "CREATED_ON": "02/09/2025", "CHAVE": "70057-1", "ÁREA TOTA": 22.85, "VARIED PLA": "RB96-6928", "CORTE": "1", "CICLO": "PRECOCE", "CULTURA": "CANA", "TALHOES_BL": "1_ao_3", "STATUS_CHA": "COLHIDO" }, "geometry": { "type": "MultiPolygon", "coordinates": [ [ [ [ -49.575395, -20.3873771 ], [ -49.575308, -20.3873674 ], [ -49.5752092, -20.3873574 ], [ -49.575109, -20.3873452 ], [ -49.5750172, -20.3873344 ], [ -49.5749486, -20.3873283 ], [ -49.5748591, -20.387319 ], [ -49.5747475, -20.3873071 ], [ -49.5746409, -20.3872912 ], [ -49.5745419, -20.3872779 ], [ -49.5744394, -20.3872662 ], [ -49.5743252, -20.3872529 ], [ -49.5742059, -20.3872419 ], [ -49.5740854, -20.3872329 ], [ -49.5739483, -20.3872193 ], [ -49.5738054, -20.3872044 ], [ -49.5736617, -20.3871886 ], [ -49.5735255, -20.387175 ], [ -49.5733868, -20.3871618 ], [ -49.5732485, -20.3871477 ], [ -49.5731363, -20.3871383 ], [ -49.5730126, -20.3871285 ], [ -49.5728854, -20.3871174 ], [ -49.5727483, -20.3871072 ], [ -49.5726316, -20.3871026 ], [ -49.5725184, -20.3870987 ], [ -49.5724157, -20.3870934 ], [ -49.5723243, -20.3870877 ], [ -49.572279, -20.3870775 ], [ -49.5722651, -20.3870493 ], [ -49.5722647, -20.3869995 ], [ -49.5722676, -20.3869133 ], [ -49.5722798, -20.3867951 ], [ -49.5722968, -20.3866343 ], [ -49.5723091, -20.3864528 ], [ -49.5723202, -20.3862646 ], [ -49.572333, -20.3860705 ], [ -49.5723496, -20.3858757 ], [ -49.5723662, -20.3857323 ], [ -49.5723803, -20.3856868 ], [ -49.5724061, -20.3856783 ], [ -49.5724416, -20.3856692 ], [ -49.5724577, -20.3856194 ], [ -49.5724583, -20.3855459 ], [ -49.5724613, -20.3854494 ], [ -49.57248, -20.3853278 ], [ -49.5724898, -20.3851855 ], [ -49.5724939, -20.3850295 ], [ -49.5724952, -20.3848754 ], [ -49.5724964, -20.3847238 ], [ -49.5724992, -20.3845728 ], [ -49.5725035, -20.3844109 ], [ -49.5725062, -20.3842411 ], [ -49.5725082, -20.3840669 ], [ -49.5725089, -20.3838788 ], [ -49.5725121, -20.3837364 ], [ -49.5725152, -20.3835896 ], [ -49.5725157, -20.3834135 ], [ -49.5725186, -20.3832256 ], [ -49.5725283, -20.3830533 ], [ -49.5725386, -20.3829009 ], [ -49.5725489, -20.3827237 ], [ -49.5725582, -20.3825317 ], [ -49.5725696, -20.3823504 ], [ -49.5725775, -20.3821522 ], [ -49.572591, -20.3819604 ], [ -49.5726053, -20.3817826 ], [ -49.5726143, -20.3816093 ], [ -49.5726233, -20.3814239 ], [ -49.5726298, -20.38129 ], [ -49.572648, -20.3812279 ], [ -49.5726869, -20.3811993 ], [ -49.5727775, -20.381192 ], [ -49.5729161, -20.381201 ], [ -49.5730625, -20.3812179 ], [ -49.5732192, -20.3812419 ], [ -49.5733622, -20.3812705 ], [ -49.5735052, -20.3813048 ], [ -49.5736448, -20.3813454 ], [ -49.5737816, -20.3813868 ], [ -49.5739133, -20.3814326 ], [ -49.5740408, -20.3814843 ], [ -49.5741687, -20.3815395 ], [ -49.5742931, -20.3815988 ], [ -49.574406, -20.3816548 ], [ -49.5744888, -20.3816978 ], [ -49.5745103, -20.3817296 ], [ -49.5745091, -20.3817738 ], [ -49.5745009, -20.3818234 ], [ -49.5745059, -20.3818724 ], [ -49.5745515, -20.3818895 ], [ -49.5745885, -20.3818582 ], [ -49.5745965, -20.381816 ], [ -49.5746085, -20.3817926 ], [ -49.5746363, -20.3817823 ], [ -49.5746812, -20.3817951 ], [ -49.5747418, -20.3818269 ], [ -49.5748316, -20.3818774 ], [ -49.5749348, -20.3819381 ], [ -49.5750473, -20.3820084 ], [ -49.5751729, -20.382083 ], [ -49.5753087, -20.3821624 ], [ -49.5754455, -20.3822448 ], [ -49.5755818, -20.3823293 ], [ -49.5757152, -20.3824139 ], [ -49.5758461, -20.38249 ], [ -49.5759629, -20.3825568 ], [ -49.5760335, -20.382605 ], [ -49.5760615, -20.3826535 ], [ -49.5760681, -20.3827294 ], [ -49.5760678, -20.3828231 ], [ -49.5760672, -20.3829289 ], [ -49.5760653, -20.3830361 ], [ -49.5760649, -20.3831211 ], [ -49.5760614, -20.3832147 ], [ -49.5760617, -20.3833175 ], [ -49.5760627, -20.3834189 ], [ -49.5760595, -20.3835161 ], [ -49.5760571, -20.3836216 ], [ -49.5760548, -20.3837445 ], [ -49.576056, -20.3838769 ], [ -49.5760523, -20.3840192 ], [ -49.5760488, -20.3841637 ], [ -49.5760483, -20.3843139 ], [ -49.5760471, -20.3844592 ], [ -49.5760436, -20.3846159 ], [ -49.576041, -20.3847748 ], [ -49.5760409, -20.3849329 ], [ -49.576038, -20.3850835 ], [ -49.5760368, -20.385221 ], [ -49.5760354, -20.3853706 ], [ -49.5760351, -20.3855258 ], [ -49.5760296, -20.3856816 ], [ -49.5760282, -20.385808 ], [ -49.5760238, -20.3859496 ], [ -49.5760231, -20.3861025 ], [ -49.5760262, -20.3862388 ], [ -49.5760222, -20.3863189 ], [ -49.5760209, -20.3864075 ], [ -49.576017, -20.3865269 ], [ -49.5760201, -20.3866692 ], [ -49.5760158, -20.3868239 ], [ -49.5760114, -20.3869761 ], [ -49.5760106, -20.3871398 ], [ -49.5760077, -20.38731 ], [ -49.5760046, -20.3874459 ], [ -49.5759891, -20.3874439 ], [ -49.5759401, -20.3874396 ], [ -49.5758629, -20.3874316 ], [ -49.5757678, -20.3874187 ], [ -49.5756687, -20.3874065 ], [ -49.5755735, -20.3873968 ], [ -49.5754801, -20.3873865 ], [ -49.575395, -20.3873771 ] ] ] ] } },
{ "type": "Feature", "properties": { "AREA_TOTAL": 20.78, "FAZENDA": "70057", "TALHAO": 2.0, "ZONA": 15030.0, "NOME_FAZ": "FAZENDA MODELO", "DESC_TALHA": "700572", "CREATED_ON": "02/09/2025", "CHAVE": "70057-2", "ÁREA TOTA": 20.78, "VARIED PLA": "RB96-6928", "CORTE": "1", "CICLO": "PRECOCE", "CULTURA": "CANA", "TALHOES_BL": "1_ao_3", "STATUS_CHA": "COLHIDO" }, "geometry": { "type": "MultiPolygon", "coordinates": [ [ [ [ -49.5721356, -20.3893856 ], [ -49.5721447, -20.389249 ], [ -49.5721506, -20.389113 ], [ -49.5721515, -20.3889794 ], [ -49.5721506, -20.3888385 ], [ -49.5721583, -20.3886863 ], [ -49.5721742, -20.3885291 ], [ -49.5721867, -20.3883682 ], [ -49.5721931, -20.3882026 ], [ -49.5722039, -20.388029 ], [ -49.572219, -20.3878504 ], [ -49.5722261, -20.3876719 ], [ -49.5722348, -20.3874929 ], [ -49.572245, -20.387311 ], [ -49.5722505, -20.3871858 ], [ -49.5722662, -20.3871333 ], [ -49.5723134, -20.3871191 ], [ -49.5723938, -20.387117 ], [ -49.5724994, -20.3871191 ], [ -49.5726141, -20.3871265 ], [ -49.572737, -20.387135 ], [ -49.5728612, -20.3871432 ], [ -49.5729863, -20.3871528 ], [ -49.5730549, -20.3871592 ], [ -49.5730694, -20.3871759 ], [ -49.573072, -20.3872056 ], [ -49.5730707, -20.3872388 ], [ -49.5730899, -20.3872665 ], [ -49.5731261, -20.3872699 ], [ -49.5731482, -20.3872488 ], [ -49.5731601, -20.3871918 ], [ -49.5731804, -20.3871762 ], [ -49.5732368, -20.3871729 ], [ -49.5733114, -20.3871803 ], [ -49.5734051, -20.3871897 ], [ -49.5735119, -20.3871994 ], [ -49.5736213, -20.3872093 ], [ -49.5737459, -20.387225 ], [ -49.5738826, -20.3872397 ], [ -49.5740173, -20.387253 ], [ -49.5741544, -20.3872628 ], [ -49.5743029, -20.3872775 ], [ -49.5744473, -20.3872941 ], [ -49.5745816, -20.3873111 ], [ -49.5747102, -20.3873297 ], [ -49.574845, -20.3873434 ], [ -49.574982, -20.3873567 ], [ -49.5751139, -20.3873722 ], [ -49.5752497, -20.387389 ], [ -49.5753968, -20.387406 ], [ -49.5755458, -20.3874229 ], [ -49.5756902, -20.387437 ], [ -49.5758252, -20.3874545 ], [ -49.5759211, -20.3874705 ], [ -49.5760037, -20.3874854 ], [ -49.5760014, -20.3876778 ], [ -49.5759987, -20.387872 ], [ -49.5759973, -20.3880585 ], [ -49.5759932, -20.3882356 ], [ -49.5759935, -20.3884029 ], [ -49.5759906, -20.3885796 ], [ -49.575987, -20.3887613 ], [ -49.5759847, -20.3889422 ], [ -49.5759819, -20.3891338 ], [ -49.5759789, -20.3893366 ], [ -49.5759757, -20.3895415 ], [ -49.5759757, -20.3897528 ], [ -49.5759704, -20.3899675 ], [ -49.5759698, -20.3901747 ], [ -49.5759677, -20.3903892 ], [ -49.5759634, -20.3905396 ], [ -49.5759621, -20.3906617 ], [ -49.5759601, -20.3908246 ], [ -49.5759583, -20.3910023 ], [ -49.5759565, -20.3911655 ], [ -49.5759547, -20.3912853 ], [ -49.5759501, -20.3914325 ], [ -49.5759483, -20.3916001 ], [ -49.575947, -20.3917478 ], [ -49.5759446, -20.3918966 ], [ -49.5759422, -20.3920619 ], [ -49.5759396, -20.3922102 ], [ -49.5759378, -20.3923162 ], [ -49.5759359, -20.3924308 ], [ -49.5759277, -20.3925403 ], [ -49.5758522, -20.3925382 ], [ -49.5757886, -20.392529 ], [ -49.5757071, -20.3925164 ], [ -49.5756179, -20.3925015 ], [ -49.5755433, -20.392488 ], [ -49.5754583, -20.3924774 ], [ -49.5753629, -20.3924649 ], [ -49.5752705, -20.3924508 ], [ -49.5751885, -20.392443 ], [ -49.5751028, -20.3924385 ], [ -49.575104, -20.3923819 ], [ -49.575087, -20.3923502 ], [ -49.5750323, -20.3923354 ], [ -49.5750239, -20.3923767 ], [ -49.575018, -20.3924003 ], [ -49.5749532, -20.3924069 ], [ -49.574912, -20.3923963 ], [ -49.5748463, -20.3923806 ], [ -49.5747488, -20.3923603 ], [ -49.5746545, -20.3923404 ], [ -49.5745427, -20.3923205 ], [ -49.5744323, -20.3923038 ], [ -49.574348, -20.392293 ], [ -49.574268, -20.3922857 ], [ -49.5742028, -20.3922792 ], [ -49.5741789, -20.3922577 ], [ -49.5741602, -20.3921971 ], [ -49.5741201, -20.3921829 ], [ -49.5740978, -20.3922662 ], [ -49.5740671, -20.3922568 ], [ -49.5739871, -20.3922324 ], [ -49.5738864, -20.392207 ], [ -49.573779, -20.3921853 ], [ -49.5736767, -20.3921666 ], [ -49.573566, -20.3921485 ], [ -49.5734458, -20.3921302 ], [ -49.57334, -20.3921178 ], [ -49.5732693, -20.3921099 ], [ -49.5732474, -20.39209 ], [ -49.5732352, -20.3920479 ], [ -49.5732062, -20.3920133 ], [ -49.5731642, -20.3920365 ], [ -49.5731519, -20.3920641 ], [ -49.5731027, -20.3920779 ], [ -49.573051, -20.3920659 ], [ -49.5729805, -20.3920474 ], [ -49.5729075, -20.3920174 ], [ -49.5728468, -20.3919738 ], [ -49.5728202, -20.3919115 ], [ -49.5728356, -20.3918312 ], [ -49.5728803, -20.3917517 ], [ -49.5729348, -20.3916671 ], [ -49.5729753, -20.3915802 ], [ -49.5729974, -20.3914861 ], [ -49.5729821, -20.3913848 ], [ -49.5729319, -20.3912836 ], [ -49.5728558, -20.3911746 ], [ -49.572758, -20.3910626 ], [ -49.5726619, -20.3909488 ], [ -49.5725617, -20.3908291 ], [ -49.5724579, -20.3907011 ], [ -49.5723543, -20.3905643 ], [ -49.5722562, -20.3904309 ], [ -49.5721742, -20.3903091 ], [ -49.5721295, -20.3901918 ], [ -49.5721096, -20.3900728 ], [ -49.5721105, -20.3899454 ], [ -49.5721123, -20.3898103 ], [ -49.572117, -20.3896712 ], [ -49.5721241, -20.3895272 ], [ -49.5721356, -20.3893856 ] ] ] ] } }
]
}
